{
  "type": "FeatureCollection",
  "snapshotId": "1700",
  "asOf": "1700-01-01",
  "dateContract": {
    "displayDate": "1700-01-01",
    "displayCalendar": "product-label-only",
    "normalizedAsOf": null,
    "normalizedCalendar": null,
    "dayBoundary": null,
    "validityInterval": "pending-review"
  },
  "readinessStatus": "blocked",
  "candidateGeometryStatus": "not-generated",
  "reason": "Candidate and reviewer evidence exists, but exact production geometry and independent approvals are absent.",
  "coverageContainersCreatePoliticalEntities": false,
  "longitudeDomain": "[-180,180]",
  "sourceBoundaryArcsSeparatedFromGeneratedMaskEdges": true,
  "generatedMaskEdgesPresent": false,
  "replacedModernSourceFeatureIds": [],
  "features": [],
  "blockers": [
    "RIGHTS_REVIEW_REQUIRED",
    "TEMPORAL_SEMANTICS_REVIEW_REQUIRED",
    "EXACT_DAY_FACTUAL_REVIEW_REQUIRED",
    "KARLOWITZ_FRONTIER_DEMARCATION_INCOMPLETE",
    "CONSTITUENT_AND_TRIBUTARY_POLICY_REVIEW_REQUIRED",
    "TOPOLOGY_AND_1080PX_REVIEW_REQUIRED",
    "SIX_REGION_PRODUCTION_GEOMETRY_NOT_APPROVED"
  ]
}
