{
  "type": "FeatureCollection",
  "snapshotId": "1914",
  "asOf": "1914-07-27",
  "readinessStatus": "blocked",
  "candidateGeometryStatus": "not-generated",
  "reason": "A six-region candidate cannot be generated until independent rights and qualified factual/topology review resolve every blocker.",
  "coverageContainersCreatePoliticalEntities": false,
  "longitudeDomain": "[-180,180]",
  "sourceBoundaryArcsSeparatedFromGeneratedMaskEdges": true,
  "generatedMaskEdgesPresent": false,
  "replacedModernSourceFeatureIds": [],
  "features": [],
  "blockers": [
    "RIGHTS_REVIEW_REQUIRED",
    "ARCHE_EXACT_RECORD_NOT_FROZEN",
    "SVALBARD_TERRA_NULLIUS_GEOMETRY_OR_NEUTRAL_MASK_MISSING",
    "AU_CONSTITUENT_TOPOLOGY_UNAPPROVED",
    "NORTHERN_EPIRUS_FACTUAL_REVIEW_REQUIRED"
  ]
}
